start=new Date('2022-12-02T00:00:00.000Z').valueOf();
sats=[{"REF_FRAME":"TEME","TIME_SYSTEM":"UTC","DECAY_DATE":null,"EPHEMERIS_TYPE":"0","MEAN_MOTION_DOT":"-0.00001603","BSTAR":"-0.00008871600000","CLASSIFICATION_TYPE":"U","FILE":"3677495","REV_AT_EPOCH":"14547","PERIOD":"95.592","OBJECT_NAME":"STARLINK-1340","INCLINATION":"53.0577","NORAD_CAT_ID":"45583","EPOCH":"2022-12-01T05:22:16.383936","TLE_LINE2":"2 45583  53.0577  38.7956 0001802  64.5968 295.5207 15.06400326145479","PERIAPSIS":"545.965","ARG_OF_PERICENTER":"64.5968","SITE":"AFETR","ELEMENT_SET_NO":"999","COUNTRY_CODE":"US","MEAN_MOTION_DDOT":"0.0000000000000","TLE_LINE1":"1 45583U 20025BE  22335.22380074 -.00001603  00000-0 -88716-4 0  9991","RCS_SIZE":"LARGE","MEAN_ELEMENT_THEORY":"SGP4","SEMIMAJOR_AXIS":"6925.348","LAUNCH_DATE":"2020-04-22","RA_OF_ASC_NODE":"38.7956","APOAPSIS":"548.461","CENTER_NAME":"EARTH","ECCENTRICITY":"0.00018020","GP_ID":"219264704","MEAN_MOTION":"15.06400326","MEAN_ANOMALY":"295.5207","OBJECT_ID":"2020-025BE","OBJECT_TYPE":"PAYLOAD"},{"BSTAR":"0.00000790800000","TIME_SYSTEM":"UTC","REF_FRAME":"TEME","MEAN_MOTION_DOT":"-0.00000164","EPHEMERIS_TYPE":"0","DECAY_DATE":null,"TLE_LINE2":"2 45584  53.0549  37.6505 0001619  61.2838 298.8313 15.06393755144912","NORAD_CAT_ID":"45584","EPOCH":"2022-12-01T11:27:08.698464","SITE":"AFETR","PERIAPSIS":"546.111","ARG_OF_PERICENTER":"61.2838","FILE":"3677536","PERIOD":"95.593","REV_AT_EPOCH":"14491","OBJECT_NAME":"STARLINK-1343","CLASSIFICATION_TYPE":"U","INCLINATION":"53.0549","MEAN_ELEMENT_THEORY":"SGP4","SEMIMAJOR_AXIS":"6925.368","MEAN_MOTION_DDOT":"0.0000000000000","COUNTRY_CODE":"US","ELEMENT_SET_NO":"999","RCS_SIZE":"LARGE","TLE_LINE1":"1 45584U 20025BF  22335.47718401 -.00000164  00000-0  79080-5 0  9993","MEAN_MOTION":"15.06393755","MEAN_ANOMALY":"298.8313","OBJECT_TYPE":"PAYLOAD","OBJECT_ID":"2020-025BF","ECCENTRICITY":"0.00016190","CENTER_NAME":"EARTH","RA_OF_ASC_NODE":"37.6505","APOAPSIS":"548.354","LAUNCH_DATE":"2020-04-22","GP_ID":"219270787"},{"SEMIMAJOR_AXIS":"6925.389","MEAN_ELEMENT_THEORY":"SGP4","TLE_LINE1":"1 45586U 20025BH  22335.56658580  .00003123  00000-0  22853-3 0  9997","RCS_SIZE":"LARGE","MEAN_MOTION_DDOT":"0.0000000000000","COUNTRY_CODE":"US","ELEMENT_SET_NO":"999","OBJECT_TYPE":"PAYLOAD","OBJECT_ID":"2020-025BH","MEAN_ANOMALY":"278.2712","MEAN_MOTION":"15.06386906","GP_ID":"219263205","RA_OF_ASC_NODE":"37.2571","APOAPSIS":"548.256","LAUNCH_DATE":"2020-04-22","ECCENTRICITY":"0.00014480","CENTER_NAME":"EARTH","BSTAR":"0.00022853000000","DECAY_DATE":null,"EPHEMERIS_TYPE":"0","MEAN_MOTION_DOT":"0.00003123","TIME_SYSTEM":"UTC","REF_FRAME":"TEME","PERIAPSIS":"546.251","ARG_OF_PERICENTER":"81.8441","SITE":"AFETR","NORAD_CAT_ID":"45586","EPOCH":"2022-12-01T13:35:53.013120","TLE_LINE2":"2 45586  53.0563  37.2571 0001448  81.8441 278.2712 15.06386906145519","INCLINATION":"53.0563","FILE":"3677495","OBJECT_NAME":"STARLINK-1347","PERIOD":"95.593","REV_AT_EPOCH":"14551","CLASSIFICATION_TYPE":"U"},{"MEAN_ELEMENT_THEORY":"SGP4","SEMIMAJOR_AXIS":"6925.349","ELEMENT_SET_NO":"999","MEAN_MOTION_DDOT":"0.0000000000000","COUNTRY_CODE":"US","RCS_SIZE":"LARGE","TLE_LINE1":"1 45587U 20025BJ  22335.47074730  .00000684  00000-0  64802-4 0  9997","MEAN_MOTION":"15.06399994","MEAN_ANOMALY":"294.3126","OBJECT_ID":"2020-025BJ","OBJECT_TYPE":"PAYLOAD","CENTER_NAME":"EARTH","ECCENTRICITY":"0.00015460","LAUNCH_DATE":"2020-04-22","RA_OF_ASC_NODE":"37.6809","APOAPSIS":"548.284","GP_ID":"219271733","BSTAR":"0.00006480200000","REF_FRAME":"TEME","TIME_SYSTEM":"UTC","MEAN_MOTION_DOT":"0.00000684","EPHEMERIS_TYPE":"0","DECAY_DATE":null,"TLE_LINE2":"2 45587  53.0551  37.6809 0001546  65.8024 294.3126 15.06399994144915","NORAD_CAT_ID":"45587","EPOCH":"2022-12-01T11:17:52.566720","SITE":"AFETR","ARG_OF_PERICENTER":"65.8024","PERIAPSIS":"546.143","CLASSIFICATION_TYPE":"U","PERIOD":"95.592","FILE":"3677575","OBJECT_NAME":"STARLINK-1349","REV_AT_EPOCH":"14491","INCLINATION":"53.0551"},{"LAUNCH_DATE":"2020-04-22","APOAPSIS":"548.091","RA_OF_ASC_NODE":"36.8795","CENTER_NAME":"EARTH","ECCENTRICITY":"0.00012880","GP_ID":"219302751","MEAN_ANOMALY":"272.3669","MEAN_MOTION":"15.06404703","OBJECT_ID":"2020-025BK","OBJECT_TYPE":"PAYLOAD","ELEMENT_SET_NO":"999","COUNTRY_CODE":"US","MEAN_MOTION_DDOT":"0.0000000000000","TLE_LINE1":"1 45588U 20025BK  22335.64766926 -.00000208  00000-0  49296-5 0  9996","RCS_SIZE":"LARGE","MEAN_ELEMENT_THEORY":"SGP4","SEMIMAJOR_AXIS":"6925.334","CLASSIFICATION_TYPE":"U","FILE":"3678231","PERIOD":"95.592","REV_AT_EPOCH":"14553","OBJECT_NAME":"STARLINK-1360","INCLINATION":"53.0556","EPOCH":"2022-12-01T15:32:38.624064","NORAD_CAT_ID":"45588","TLE_LINE2":"2 45588  53.0556  36.8795 0001288  87.7467 272.3669 15.06404703145535","ARG_OF_PERICENTER":"87.7467","PERIAPSIS":"546.307","SITE":"AFETR","REF_FRAME":"TEME","TIME_SYSTEM":"UTC","DECAY_DATE":null,"EPHEMERIS_TYPE":"0","MEAN_MOTION_DOT":"-0.00000208","BSTAR":"0.00000492960000"},{"CENTER_NAME":"EARTH","ECCENTRICITY":"0.00015450","LAUNCH_DATE":"2020-04-22","RA_OF_ASC_NODE":"37.8026","APOAPSIS":"548.300","GP_ID":"219271111","MEAN_ANOMALY":"294.0746","MEAN_MOTION":"15.06394534","OBJECT_ID":"2020-025BL","OBJECT_TYPE":"PAYLOAD","ELEMENT_SET_NO":"999","MEAN_MOTION_DDOT":"0.0000000000000","COUNTRY_CODE":"US","RCS_SIZE":"LARGE","TLE_LINE1":"1 45589U 20025BL  22335.44495133  .00000281  00000-0  37752-4 0  9997","MEAN_ELEMENT_THEORY":"SGP4","SEMIMAJOR_AXIS":"6925.365","CLASSIFICATION_TYPE":"U","FILE":"3677538","PERIOD":"95.592","REV_AT_EPOCH":"14490","OBJECT_NAME":"STARLINK-1364","INCLINATION":"53.0571","TLE_LINE2":"2 45589  53.0571  37.8026 0001545  66.0405 294.0746 15.06394534144906","NORAD_CAT_ID":"45589","EPOCH":"2022-12-01T10:40:43.794912","SITE":"AFETR","ARG_OF_PERICENTER":"66.0405","PERIAPSIS":"546.160","REF_FRAME":"TEME","TIME_SYSTEM":"UTC","MEAN_MOTION_DOT":"0.00000281","DECAY_DATE":null,"EPHEMERIS_TYPE":"0","BSTAR":"0.00003775200000"},{"TIME_SYSTEM":"UTC","REF_FRAME":"TEME","EPHEMERIS_TYPE":"0","DECAY_DATE":null,"MEAN_MOTION_DOT":"0.00000834","BSTAR":"0.00007489200000","PERIOD":"95.592","FILE":"3678231","REV_AT_EPOCH":"14513","OBJECT_NAME":"STARLINK-1365","CLASSIFICATION_TYPE":"U","INCLINATION":"53.0552","EPOCH":"2022-12-01T15:49:53.733216","NORAD_CAT_ID":"45590","TLE_LINE2":"2 45590  53.0552  66.8277 0001644  58.4662 301.6487 15.06403078145134","ARG_OF_PERICENTER":"58.4662","PERIAPSIS":"546.066","SITE":"AFETR","COUNTRY_CODE":"US","MEAN_MOTION_DDOT":"0.0000000000000","ELEMENT_SET_NO":"999","TLE_LINE1":"1 45590U 20025BM  22335.65964969  .00000834  00000-0  74892-4 0  9990","RCS_SIZE":"LARGE","MEAN_ELEMENT_THEORY":"SGP4","SEMIMAJOR_AXIS":"6925.339","RA_OF_ASC_NODE":"66.8277","APOAPSIS":"548.343","LAUNCH_DATE":"2020-04-22","ECCENTRICITY":"0.00016440","CENTER_NAME":"EARTH","GP_ID":"219301255","MEAN_MOTION":"15.06403078","MEAN_ANOMALY":"301.6487","OBJECT_TYPE":"PAYLOAD","OBJECT_ID":"2020-025BM"},{"SEMIMAJOR_AXIS":"6925.347","MEAN_ELEMENT_THEORY":"SGP4","RCS_SIZE":"LARGE","TLE_LINE1":"1 45658U 20035B   22335.43480828  .00000340  00000-0  41758-4 0  9996","COUNTRY_CODE":"US","MEAN_MOTION_DDOT":"0.0000000000000","ELEMENT_SET_NO":"999","OBJECT_TYPE":"PAYLOAD","OBJECT_ID":"2020-035B","MEAN_ANOMALY":"302.2405","MEAN_MOTION":"15.06400366","GP_ID":"219277166","CENTER_NAME":"EARTH","ECCENTRICITY":"0.00016810","RA_OF_ASC_NODE":"27.8363","APOAPSIS":"548.377","LAUNCH_DATE":"2020-06-04","BSTAR":"0.00004175800000","MEAN_MOTION_DOT":"0.00000340","EPHEMERIS_TYPE":"0","DECAY_DATE":null,"TIME_SYSTEM":"UTC","REF_FRAME":"TEME","SITE":"AFETR","PERIAPSIS":"546.048","ARG_OF_PERICENTER":"57.8747","TLE_LINE2":"2 45658  53.0562  27.8363 0001681  57.8747 302.2405 15.06400366138328","NORAD_CAT_ID":"45658","EPOCH":"2022-12-01T10:26:07.435392","INCLINATION":"53.0562","FILE":"3677796","OBJECT_NAME":"STARLINK-1441","PERIOD":"95.592","REV_AT_EPOCH":"13832","CLASSIFICATION_TYPE":"U"},{"BSTAR":"-0.00028884000000","REF_FRAME":"TEME","TIME_SYSTEM":"UTC","EPHEMERIS_TYPE":"0","DECAY_DATE":null,"MEAN_MOTION_DOT":"-0.00004581","NORAD_CAT_ID":"45659","EPOCH":"2022-12-01T20:03:18.460512","TLE_LINE2":"2 45659  53.0562  26.0391 0001430 120.7216 239.3914 15.06398829138789","ARG_OF_PERICENTER":"120.7216","PERIAPSIS":"546.227","SITE":"AFETR","CLASSIFICATION_TYPE":"U","FILE":"3678231","OBJECT_NAME":"STARLINK-1442","PERIOD":"95.592","REV_AT_EPOCH":"13878","INCLINATION":"53.0562","MEAN_ELEMENT_THEORY":"SGP4","SEMIMAJOR_AXIS":"6925.352","ELEMENT_SET_NO":"999","MEAN_MOTION_DDOT":"0.0000000000000","COUNTRY_CODE":"US","TLE_LINE1":"1 45659U 20035C   22335.83563033 -.00004581  00000-0 -28884-3 0  9998","RCS_SIZE":"LARGE","MEAN_MOTION":"15.06398829","MEAN_ANOMALY":"239.3914","OBJECT_ID":"2020-035C","OBJECT_TYPE":"PAYLOAD","LAUNCH_DATE":"2020-06-04","RA_OF_ASC_NODE":"26.0391","APOAPSIS":"548.207","ECCENTRICITY":"0.00014300","CENTER_NAME":"EARTH","GP_ID":"219303002"},{"OBJECT_ID":"2020-035D","OBJECT_TYPE":"PAYLOAD","MEAN_MOTION":"15.06394803","MEAN_ANOMALY":"293.2290","GP_ID":"219301260","ECCENTRICITY":"0.00014190","CENTER_NAME":"EARTH","LAUNCH_DATE":"2020-06-04","APOAPSIS":"548.212","RA_OF_ASC_NODE":"26.9014","SEMIMAJOR_AXIS":"6925.364","MEAN_ELEMENT_THEORY":"SGP4","RCS_SIZE":"LARGE","TLE_LINE1":"1 45660U 20035D   22335.64491152  .00000287  00000-0  38175-4 0  9993","ELEMENT_SET_NO":"999","MEAN_MOTION_DDOT":"0.0000000000000","COUNTRY_CODE":"US","SITE":"AFETR","PERIAPSIS":"546.247","ARG_OF_PERICENTER":"66.8849","TLE_LINE2":"2 45660  53.0568  26.9014 0001419  66.8849 293.2290 15.06394803138769","NORAD_CAT_ID":"45660","EPOCH":"2022-12-01T15:28:40.355328","INCLINATION":"53.0568","CLASSIFICATION_TYPE":"U","FILE":"3678231","PERIOD":"95.592","OBJECT_NAME":"STARLINK-1443","REV_AT_EPOCH":"13876","BSTAR":"0.00003817500000","MEAN_MOTION_DOT":"0.00000287","DECAY_DATE":null,"EPHEMERIS_TYPE":"0","REF_FRAME":"TEME","TIME_SYSTEM":"UTC"}];
